NORAD_CAT_ID,OBJECT_NAME,OBJECT_TYPE,EPOCH,MEAN_MOTION,ECCENTRICITY,INCLINATION,RA_OF_ASC_NODE,ARG_OF_PERICENTER,MEAN_ANOMALY,BSTAR,MEAN_MOTION_DOT,MEAN_MOTION_DDOT,TLE_LINE0,TLE_LINE1,TLE_LINE2,SEMIMAJOR_AXIS,PERIOD,APOGEE,PERIGEE,DECAYED
52125.0,STARLINK-3727,PAYLOAD,2024-08-04 13:43:49,15.0884557,0.0001016,53.2147,162.3496,96.5282,263.5826,0.00027058,4.022e-05,0.0,0 STARLINK-3727,1 52125U 22029AP  24217.57209530  .00004022  00000-0  27058-3 0  9990,2 52125  53.2147 162.3496 0001016  96.5282 263.5826 15.08845570133057,6917.863,95.437,540.431,539.026,0.0
52125.0,STARLINK-3727,PAYLOAD,2024-08-04 20:05:21,15.08868777,0.0001381,53.2147,161.1606,91.9369,268.1781,0.0025357,0.00040331,0.0,0 STARLINK-3727,1 52125U 22029AP  24217.83705612  .00040331  00000-0  25357-2 0  9993,2 52125  53.2147 161.1606 0001381  91.9369 268.1781 15.08868777133096,6917.792,95.436,540.613,538.702,0.0
52125.0,STARLINK-3727,PAYLOAD,2024-08-04 21:40:44,15.08877087,0.0001383,53.2147,160.863,91.4195,268.6956,0.003002,0.00047862,0.0,0 STARLINK-3727,1 52125U 22029AP  24217.90329482  .00047862  00000-0  30020-2 0  9997,2 52125  53.2147 160.8630 0001383  91.4195 268.6956 15.08877087133108,6917.767,95.435,540.589,538.675,0.0
52125.0,STARLINK-3727,PAYLOAD,2024-08-05 04:02:16,15.08868815,0.0001464,53.2149,159.6737,87.2514,272.8645,0.0019611,0.00031086,0.0,0 STARLINK-3727,1 52125U 22029AP  24218.16825154  .00031086  00000-0  19611-2 0  9997,2 52125  53.2149 159.6737 0001464  87.2514 272.8645 15.08868815133147,6917.792,95.436,540.67,538.645,0.0
52125.0,STARLINK-3727,PAYLOAD,2024-08-05 19:56:09,15.08801385,0.0001336,53.2152,156.7005,97.3277,262.7867,-0.00034486,-5.766e-05,0.0,0 STARLINK-3727,1 52125U 22029AP  24218.83066597 -.00005766  00000-0 -34486-3 0  9995,2 52125  53.2152 156.7005 0001336  97.3277 262.7867 15.08801385133247,6917.998,95.44,540.788,538.939,0.0
52125.0,STARLINK-3727,PAYLOAD,2024-08-05 21:31:32,15.08796741,0.0001327,53.215,156.4029,95.4159,264.6985,-0.00095839,-0.0001549,0.0,0 STARLINK-3727,1 52125U 22029AP  24218.89690548 -.00015490  00000-0 -95839-3 0  9994,2 52125  53.2150 156.4029 0001327  95.4159 264.6985 15.08796741133258,6918.013,95.44,540.796,538.96,0.0
52125.0,STARLINK-3727,PAYLOAD,2024-08-06 13:25:25,15.08832665,0.0001342,53.2155,153.4298,105.7888,254.3252,0.0025258,0.00040131,0.0,0 STARLINK-3727,1 52125U 22029AP  24219.55932182  .00040131  00000-0  25258-2 0  9996,2 52125  53.2155 153.4298 0001342 105.7888 254.3252 15.08832665133359,6917.903,95.438,540.696,538.839,0.0
52125.0,STARLINK-3727,PAYLOAD,2024-08-06 18:11:34,15.0885358,0.0001331,53.2155,152.5376,105.7428,254.3711,0.0028142,0.00044802,0.0,0 STARLINK-3727,1 52125U 22029AP  24219.75804125  .00044802  00000-0  28142-2 0  9997,2 52125  53.2155 152.5376 0001331 105.7428 254.3711 15.08853580133386,6917.839,95.437,540.625,538.783,0.0
52125.0,STARLINK-3727,PAYLOAD,2024-08-07 02:08:29,15.08886085,0.0001387,53.2156,151.0511,109.1388,250.9754,0.0026822,0.00042712,0.0,0 STARLINK-3727,1 52125U 22029AP  24220.08923310  .00042712  00000-0  26822-2 0  9994,2 52125  53.2156 151.0511 0001387 109.1388 250.9754 15.08886085133437,6917.74,95.435,540.564,538.645,0.0
52125.0,STARLINK-3727,PAYLOAD,2024-08-07 19:37:43,15.08885546,0.0001768,53.2158,147.7796,121.1359,238.9806,0.0022224,0.00035303,0.0,0 STARLINK-3727,1 52125U 22029AP  24220.81786476  .00035303  00000-0  22224-2 0  9995,2 52125  53.2158 147.7796 0001768 121.1359 238.9806 15.08885546133548,6917.741,95.435,540.829,538.383,0.0
52125.0,STARLINK-3727,PAYLOAD,2024-08-08 05:10:01,15.08904332,0.0001397,53.2161,145.9962,354.2256,5.872,0.0035669,0.00057039,0.0,0 STARLINK-3727,1 52125U 22029AP  24221.21529669  .00057039  00000-0  35669-2 0  9996,2 52125  53.2161 145.9962 0001397 354.2256   5.8720 15.08904332133608,6917.684,95.433,540.515,538.582,0.0
52125.0,STARLINK-3727,PAYLOAD,2024-08-08 22:39:16,15.08872186,0.0001516,53.2157,142.7248,116.4977,243.6171,0.0031671,0.00050523,0.0,0 STARLINK-3727,1 52125U 22029AP  24221.94393990  .00050523  00000-0  31671-2 0  9992,2 52125  53.2157 142.7248 0001516 116.4977 243.6171 15.08872186133711,6917.782,95.436,540.696,538.598,0.0
52125.0,STARLINK-3727,PAYLOAD,2024-08-09 01:50:02,15.08865874,0.000127,53.2162,142.131,91.1353,268.9784,0.002122,0.00033669,0.0,0 STARLINK-3727,1 52125U 22029AP  24222.07641926  .00033669  00000-0  21220-2 0  9993,2 52125  53.2162 142.1310 0001270  91.1353 268.9784 15.08865874133733,6917.801,95.436,540.545,538.788,0.0
52125.0,STARLINK-3727,PAYLOAD,2024-08-09 11:22:20,15.0886701,0.0001218,53.2156,140.3486,92.5541,267.5591,0.0010499,0.00016473,0.0,0 STARLINK-3727,1 52125U 22029AP  24222.47385370  .00016473  00000-0  10499-2 0  9995,2 52125  53.2156 140.3486 0001218  92.5541 267.5591 15.08867010133797,6917.798,95.436,540.505,538.82,0.0
52125.0,STARLINK-3727,PAYLOAD,2024-08-10 00:05:26,15.08841618,0.0001318,53.216,137.9672,76.129,283.9848,0.00056531,8.721e-05,0.0,0 STARLINK-3727,1 52125U 22029AP  24223.00377546  .00008721  00000-0  56531-3 0  9996,2 52125  53.2160 137.9672 0001318  76.1290 283.9848 15.08841618133873,6917.875,95.437,540.652,538.829,0.0
52125.0,STARLINK-3727,PAYLOAD,2024-08-10 22:20:48,15.08879222,0.0001297,53.2159,133.8073,90.2189,269.8951,0.0010878,0.00017085,0.0,0 STARLINK-3727,1 52125U 22029AP  24223.93111960  .00017085  00000-0  10878-2 0  9990,2 52125  53.2159 133.8073 0001297  90.2189 269.8951 15.08879222134018,6917.761,95.435,540.523,538.728,0.0
52125.0,STARLINK-3727,PAYLOAD,2024-08-11 01:31:34,15.08807737,0.0001436,53.2149,133.2092,122.7767,237.3364,-0.001384,-0.00022227,0.0,0 STARLINK-3727,1 52125U 22029AP  24224.06359690 -.00022227  00000-0 -13840-2 0  9997,2 52125  53.2149 133.2092 0001436 122.7767 237.3364 15.08807737134032,6917.979,95.44,540.837,538.851,0.0
52125.0,STARLINK-3727,PAYLOAD,2024-08-11 17:25:27,15.08817394,0.0001492,53.2163,130.2341,86.7449,273.3713,-0.00029019,-4.9e-05,0.0,0 STARLINK-3727,1 52125U 22029AP  24224.72601626 -.00004900  00000-0 -29019-3 0  9993,2 52125  53.2163 130.2341 0001492  86.7449 273.3713 15.08817394134139,6917.949,95.439,540.847,538.782,0.0
52125.0,STARLINK-3727,PAYLOAD,2024-08-11 22:11:37,15.08822584,0.0001306,53.2149,129.346,92.9948,267.1194,0.00077945,0.00012133,0.0,0 STARLINK-3727,1 52125U 22029AP  24224.92474002  .00012133  00000-0  77945-3 0  9997,2 52125  53.2149 129.3460 0001306  92.9948 267.1194 15.08822584134165,6917.934,95.439,540.702,538.895,0.0
52125.0,STARLINK-3727,PAYLOAD,2024-08-12 01:22:23,15.08850904,0.0001434,53.2148,128.7452,102.7075,257.4078,0.0016376,0.00025878,0.0,0 STARLINK-3727,1 52125U 22029AP  24225.05721756  .00025878  00000-0  16376-2 0  9993,2 52125  53.2148 128.7452 0001434 102.7075 257.4078 15.08850904134183,6917.847,95.437,540.704,538.72,0.0
52125.0,STARLINK-3727,PAYLOAD,2024-08-12 10:54:42,15.08837942,0.0001586,53.2147,126.9635,87.9122,272.2052,0.0010488,0.00016442,0.0,0 STARLINK-3727,1 52125U 22029AP  24225.45466433  .00016442  00000-0  10488-2 0  9990,2 52125  53.2147 126.9635 0001586  87.9122 272.2052 15.08837942134241,6917.887,95.438,540.849,538.655,0.0
52125.0,STARLINK-3727,PAYLOAD,2024-08-12 17:16:15,15.08869396,0.000199,53.2152,125.7754,73.0749,287.0462,0.0018035,0.00028555,0.0,0 STARLINK-3727,1 52125U 22029AP  24225.71962082  .00028555  00000-0  18035-2 0  9994,2 52125  53.2152 125.7754 0001990  73.0749 287.0462 15.08869396134287,6917.791,95.436,541.032,538.279,0.0
52125.0,STARLINK-3727,PAYLOAD,2024-08-12 22:02:24,15.08875779,0.0001897,53.2147,124.8818,72.6898,287.4301,0.0022318,0.00035445,0.0,0 STARLINK-3727,1 52125U 22029AP  24225.91833793  .00035445  00000-0  22318-2 0  9997,2 52125  53.2147 124.8818 0001897  72.6898 287.4301 15.08875779134310,6917.771,95.435,540.948,538.324,0.0
52125.0,STARLINK-3727,PAYLOAD,2024-08-13 02:48:32,15.08920261,0.000132,53.2141,123.99,74.4251,285.6887,0.0046561,0.00074765,0.0,0 STARLINK-3727,1 52125U 22029AP  24226.11704735  .00074765  00000-0  46561-2 0  9997,2 52125  53.2141 123.9900 0001320  74.4251 285.6887 15.08920261134349,6917.635,95.432,540.413,538.587,0.0
52125.0,STARLINK-3727,PAYLOAD,2024-08-13 10:45:28,15.08845337,0.0001486,53.2151,122.5044,73.5763,286.5392,-0.00083046,-0.00013482,0.0,0 STARLINK-3727,1 52125U 22029AP  24226.44825165 -.00013482  00000-0 -83046-3 0  9995,2 52125  53.2151 122.5044 0001486  73.5763 286.5392 15.08845337134391,6917.864,95.437,540.757,538.701,0.0
52125.0,STARLINK-3727,PAYLOAD,2024-08-13 21:53:12,15.08784755,0.0001582,53.2153,120.4239,91.4319,268.6854,0.00039322,5.966e-05,0.0,0 STARLINK-3727,1 52125U 22029AP  24226.91195424  .00005966  00000-0  39322-3 0  9999,2 52125  53.2153 120.4239 0001582  91.4319 268.6854 15.08784755134467,6918.049,95.441,541.009,538.82,0.0
52125.0,STARLINK-3727,PAYLOAD,2024-08-14 02:39:22,15.08793177,0.0001622,53.2153,119.5286,97.173,262.9446,0.0020506,0.00032456,0.0,0 STARLINK-3727,1 52125U 22029AP  24227.11068071  .00032456  00000-0  20506-2 0  9996,2 52125  53.2153 119.5286 0001622  97.1730 262.9446 15.08793177134498,6918.024,95.441,541.011,538.766,0.0
52125.0,STARLINK-3727,PAYLOAD,2024-08-14 23:19:24,15.08851273,0.0001486,53.2147,115.6637,95.9914,264.1248,0.0020386,0.00032316,0.0,0 STARLINK-3727,1 52125U 22029AP  24227.97180941  .00032316  00000-0  20386-2 0  9992,2 52125  53.2147 115.6637 0001486  95.9914 264.1248 15.08851273134627,6917.846,95.437,540.739,538.683,0.0
52125.0,STARLINK-3727,PAYLOAD,2024-08-15 23:10:10,15.08870848,0.000142,53.2157,111.2043,93.066,267.0495,0.0010413,0.00016337,0.0,0 STARLINK-3727,1 52125U 22029AP  24228.96539824  .00016337  00000-0  10413-2 0  9995,2 52125  53.2157 111.2043 0001420  93.0660 267.0495 15.08870848134777,6917.786,95.436,540.633,538.669,0.0
52125.0,STARLINK-3727,PAYLOAD,2024-08-16 21:25:33,15.08858214,0.0001269,53.2162,107.0379,100.364,259.7495,0.00045768,7.007e-05,0.0,0 STARLINK-3727,1 52125U 22029AP  24229.89275226  .00007007  00000-0  45768-3 0  9997,2 52125  53.2162 107.0379 0001269 100.3640 259.7495 15.08858214134916,6917.825,95.436,540.568,538.812,0.0
